OBJECT_NAME,OBJECT_ID,EPOCH,MEAN_MOTION,ECCENTRICITY,INCLINATION,RA_OF_ASC_NODE,ARG_OF_PERICENTER,MEAN_ANOMALY,EPHEMERIS_TYPE,CLASSIFICATION_TYPE,NORAD_CAT_ID,ELEMENT_SET_NO,REV_AT_EPOCH,BSTAR,MEAN_MOTION_DOT,MEAN_MOTION_DDOT
STARLINK-37992,2026-145E,2026-07-16T12:10:57.916128,15.75253996,.00011048,97.2837,44.4141,92.1006,268.0386,0,U,69681,999,338,.13480406E-2,.206445E-2,0
STARLINK-37997,2026-145F,2026-07-16T14:00:01.999872,15.75266898,.00014165,97.2839,44.4976,80.6282,352.7065,0,U,69682,999,465,-.10429302E-2,-.153443E-2,0
STARLINK-37990,2026-145G,2026-07-16T14:00:01.999872,15.75261249,.00014633,97.2839,44.4963,84.0103,347.3258,0,U,69683,999,465,-.10140801E-2,-.149239E-2,0
STARLINK-37951,2026-145H,2026-07-16T12:08:56.028192,15.75235306,.0001706,97.2835,44.4148,99.8388,260.3070,0,U,69684,999,338,.90573289E-3,.137432E-2,0
STARLINK-37957,2026-145J,2026-07-16T12:07:24.610080,15.75228400,.00014684,97.2827,44.4169,88.4941,271.6493,0,U,69685,999,338,.12313572E-2,.187945E-2,0
STARLINK-37968,2026-145K,2026-07-16T11:58:46.376832,15.75235996,.00026155,97.2834,44.4261,63.1560,296.9972,0,U,69686,999,338,.80844417E-3,.122454E-2,0
STARLINK-37977,2026-145L,2026-07-16T11:57:45.317088,15.75228781,.00026005,97.2832,44.4272,91.2440,268.9123,0,U,69687,999,338,.82091107E-3,.124333E-2,0
STARLINK-37908,2026-145M,2026-07-16T13:26:11.060736,15.75261760,.00012259,97.2838,44.4968,112.2019,247.9376,0,U,69688,999,339,.14056561E-2,.215579E-2,0
STARLINK-37979,2026-145N,2026-07-16T13:25:40.648800,15.75236634,.00009117,97.2843,44.4979,99.0065,261.1303,0,U,69689,999,339,.99577931E-3,.151362E-2,0
STARLINK-37940,2026-145P,2026-07-16T13:24:09.119232,15.75204069,.00015076,97.2831,44.4982,98.5498,261.5938,0,U,69690,999,339,.56356295E-3,.84821E-3,0
STARLINK-37961,2026-145Q,2026-07-16T13:19:34.604832,15.75234209,.00013108,97.2835,44.5025,88.8041,271.3375,0,U,69691,999,339,.10202753E-2,.155142E-2,0
STARLINK-37787,2026-145R,2026-07-16T13:16:31.916352,15.75204778,.00012836,97.2829,44.5053,90.4081,269.7331,0,U,69692,999,339,.68543139E-3,.103419E-2,0
STARLINK-37962,2026-145S,2026-07-16T13:13:59.236320,15.75214634,.00012464,97.2843,44.5092,101.3258,258.8147,0,U,69693,999,339,.66669651E-3,.100598E-2,0
STARLINK-37953,2026-145T,2026-07-16T13:18:03.223872,15.75263621,.00011985,97.2845,44.5044,106.1175,254.0223,0,U,69694,999,339,.13594549E-2,.208327E-2,0
STARLINK-37926,2026-145U,2026-07-16T14:00:01.999872,15.75288818,.00014494,97.2838,44.5391,82.3587,86.9553,0,U,69695,999,465,-.12422541E-2,-.182308E-2,0
STARLINK-37959,2026-145V,2026-07-16T13:15:30.766752,15.75235767,.00011985,97.2846,44.5069,105.2935,254.8463,0,U,69696,999,339,.92624464E-3,.1406E-2,0
STARLINK-37976,2026-145W,2026-07-16T13:11:26.905344,15.75227488,.00013759,97.2845,44.5107,101.2800,258.8620,0,U,69697,999,339,.94065835E-3,.142776E-2,0
STARLINK-37912,2026-145X,2026-07-16T13:09:54.872064,15.75296882,.0001849,97.2832,44.5121,115.6428,244.5028,0,U,69698,999,339,.15076974E-2,.232043E-2,0
STARLINK-37974,2026-145Y,2026-07-16T13:08:54.332448,15.75264558,.0001924,97.2839,44.5133,113.8466,246.3001,0,U,69699,999,339,.13042765E-2,.199674E-2,0
STARLINK-37955,2026-145Z,2026-07-16T13:05:20.978880,15.75197423,.00018548,97.2832,44.5167,105.7794,254.3676,0,U,69700,999,339,.75187254E-3,.113559E-2,0
STRIX-8,2026-146A,2026-07-16T13:07:13.285920,15.04441016,.00069822,41.9904,5.6062,32.0399,328.0852,0,U,69701,999,298,.17683455E-3,.2324E-4,0
STARLINK-38055,2026-147A,2026-07-16T15:00:13.528512,15.80818113,.00011367,97.2814,234.0945,111.3732,248.7657,0,U,69704,999,408,.1113054E-2,.218507E-2,0
STARLINK-37898,2026-147B,2026-07-16T14:59:02.306400,15.80844137,.00015149,97.2826,234.0963,94.2790,265.8652,0,U,69705,999,408,.91503111E-3,.179003E-2,0
STARLINK-37970,2026-147C,2026-07-16T13:26:48.325056,15.80872596,.00014735,97.2816,234.0302,96.8977,263.2459,0,U,69706,999,407,.11300194E-2,.222495E-2,0
STARLINK-37975,2026-147D,2026-07-16T13:25:43.148352,15.80882449,.00006378,97.2818,234.0318,98.3882,261.7458,0,U,69707,999,407,.10892426E-2,.214357E-2,0
STARLINK-37972,2026-147E,2026-07-16T13:24:36.240192,15.80975070,.00007826,97.2809,234.0308,63.3263,296.8085,0,U,69708,999,407,.12335051E-2,.244651E-2,0
STARLINK-37963,2026-147F,2026-07-16T08:50:05.795232,15.80863906,.00015525,97.2817,233.8316,105.6960,254.4479,0,U,69709,999,404,.10902468E-2,.214373E-2,0
STARLINK-37969,2026-147G,2026-07-16T13:22:28.804512,15.80946476,.00013387,97.2818,234.0347,75.4548,284.6869,0,U,69710,999,407,.15289562E-2,.305011E-2,0
