STARLINK-37992          
1 69681U 26145E   26197.50761477  .00206445  00000+0  13480-2 0  9998
2 69681  97.2837  44.4141 0001104  92.1006 268.0386 15.75253996  3389
STARLINK-37997          
1 69682U 26145F   26197.58335648 -.00153443  00000+0 -10429-2 0  9995
2 69682  97.2839  44.4976 0001416  80.6282 352.7065 15.75266898  4653
STARLINK-37990          
1 69683U 26145G   26197.58335648 -.00149239  00000+0 -10141-2 0  9995
2 69683  97.2839  44.4963 0001463  84.0103 347.3258 15.75261249  4651
STARLINK-37951          
1 69684U 26145H   26197.50620403  .00137432  00000+0  90573-3 0  9992
2 69684  97.2835  44.4148 0001706  99.8388 260.3070 15.75235306  3382
STARLINK-37957          
1 69685U 26145J   26197.50514595  .00187945  00000+0  12314-2 0  9997
2 69685  97.2827  44.4169 0001468  88.4941 271.6493 15.75228400  3382
STARLINK-37968          
1 69686U 26145K   26197.49914788  .00122454  00000+0  80844-3 0  9992
2 69686  97.2834  44.4261 0002615  63.1560 296.9972 15.75235996  3386
STARLINK-37977          
1 69687U 26145L   26197.49844117  .00124333  00000+0  82091-3 0  9995
2 69687  97.2832  44.4272 0002600  91.2440 268.9123 15.75228781  3381
STARLINK-37908          
1 69688U 26145M   26197.55985024  .00215579  00000+0  14057-2 0  9995
2 69688  97.2838  44.4968 0001225 112.2019 247.9376 15.75261760  3390
STARLINK-37979          
1 69689U 26145N   26197.55949825  .00151362  00000+0  99578-3 0  9996
2 69689  97.2843  44.4979 0000911  99.0065 261.1303 15.75236634  3393
STARLINK-37940          
1 69690U 26145P   26197.55843888  .00084821  00000+0  56356-3 0  9992
2 69690  97.2831  44.4982 0001507  98.5498 261.5938 15.75204069  3397
STARLINK-37961          
1 69691U 26145Q   26197.55526163  .00155142  00000+0  10203-2 0  9992
2 69691  97.2835  44.5025 0001310  88.8041 271.3375 15.75234209  3392
STARLINK-37787          
1 69692U 26145R   26197.55314718  .00103419  00000+0  68543-3 0  9995
2 69692  97.2829  44.5053 0001283  90.4081 269.7331 15.75204778  3390
STARLINK-37962          
1 69693U 26145S   26197.55138005  .00100598  00000+0  66670-3 0  9993
2 69693  97.2843  44.5092 0001246 101.3258 258.8147 15.75214634  3393
STARLINK-37953          
1 69694U 26145T   26197.55420398  .00208327  00000+0  13595-2 0  9999
2 69694  97.2845  44.5044 0001198 106.1175 254.0223 15.75263621  3393
STARLINK-37926          
1 69695U 26145U   26197.58335648 -.00182308  00000+0 -12423-2 0  9997
2 69695  97.2838  44.5391 0001449  82.3587  86.9553 15.75288818  4655
STARLINK-37959          
1 69696U 26145V   26197.55243943  .00140600  00000+0  92624-3 0  9990
2 69696  97.2846  44.5069 0001198 105.2935 254.8463 15.75235767  3391
STARLINK-37976          
1 69697U 26145W   26197.54961696  .00142776  00000+0  94066-3 0  9990
2 69697  97.2845  44.5107 0001375 101.2800 258.8620 15.75227488  3398
STARLINK-37912          
1 69698U 26145X   26197.54855176  .00232043  00000+0  15077-2 0  9997
2 69698  97.2832  44.5121 0001849 115.6428 244.5028 15.75296882  3390
STARLINK-37974          
1 69699U 26145Y   26197.54785107  .00199674  00000+0  13043-2 0  9997
2 69699  97.2839  44.5133 0001924 113.8466 246.3001 15.75264558  3393
STARLINK-37955          
1 69700U 26145Z   26197.54538170  .00113559  00000+0  75187-3 0  9992
2 69700  97.2832  44.5167 0001854 105.7794 254.3676 15.75197423  3395
STRIX-8                 
1 69701U 26146A   26197.54668155  .00002324  00000+0  17683-3 0  9995
2 69701  41.9904   5.6062 0006982  32.0399 328.0852 15.04441016  2985
STARLINK-38055          
1 69704U 26147A   26197.62515658  .00218507  00000+0  11131-2 0  9990
2 69704  97.2814 234.0945 0001136 111.3732 248.7657 15.80818113  4082
STARLINK-37898          
1 69705U 26147B   26197.62433225  .00179003  00000+0  91503-3 0  9999
2 69705  97.2826 234.0963 0001514  94.2790 265.8652 15.80844137  4089
STARLINK-37970          
1 69706U 26147C   26197.56028154  .00222495  00000+0  11300-2 0  9994
2 69706  97.2816 234.0302 0001473  96.8977 263.2459 15.80872596  4071
STARLINK-37975          
1 69707U 26147D   26197.55952718  .00214357  00000+0  10892-2 0  9999
2 69707  97.2818 234.0318 0000637  98.3882 261.7458 15.80882449  4074
STARLINK-37972          
1 69708U 26147E   26197.55875278  .00244651  00000+0  12335-2 0  9999
2 69708  97.2809 234.0308 0000782  63.3263 296.8085 15.80975070  4078
STARLINK-37963          
1 69709U 26147F   26197.36812263  .00214373  00000+0  10902-2 0  9990
2 69709  97.2817 233.8316 0001552 105.6960 254.4479 15.80863906  4042
STARLINK-37969          
1 69710U 26147G   26197.55727783  .00305011  00000+0  15290-2 0  9990
2 69710  97.2818 234.0347 0001338  75.4548 284.6869 15.80946476  4075
